NORAD_CAT_ID,OBJECT_NAME,OBJECT_TYPE,EPOCH,MEAN_MOTION,ECCENTRICITY,INCLINATION,RA_OF_ASC_NODE,ARG_OF_PERICENTER,MEAN_ANOMALY,BSTAR,MEAN_MOTION_DOT,MEAN_MOTION_DDOT,TLE_LINE0,TLE_LINE1,TLE_LINE2,SEMIMAJOR_AXIS,PERIOD,APOGEE,PERIGEE,DECAYED
52569.0,STARLINK-3927,PAYLOAD,2023-08-05 19:09:19,15.08849428,0.0001161,53.216,49.8811,80.6249,279.4875,0.00076556,0.0001192,0.0,0 STARLINK-3927,1 52569U 22051AN  23217.79814221  .00011920  00000-0  76556-3 0  9991,2 52569  53.2160  49.8811 0001161  80.6249 279.4875 15.08849428 68707,6917.852,95.437,540.52,538.913,0.0
52569.0,STARLINK-3927,PAYLOAD,2023-08-05 20:44:41,15.08863136,0.0001043,53.2158,49.5826,92.1459,267.9653,0.00056519,8.724e-05,0.0,0 STARLINK-3927,1 52569U 22051AN  23217.86437436  .00008724  00000-0  56519-3 0  9993,2 52569  53.2158  49.5826 0001043  92.1459 267.9653 15.08863136 68716,6917.81,95.436,540.396,538.953,0.0
52569.0,STARLINK-3927,PAYLOAD,2023-08-06 06:17:01,15.08838696,0.0001805,53.2161,47.7992,68.3288,291.7896,2.4034e-05,9.4e-07,0.0,0 STARLINK-3927,1 52569U 22051AN  23218.26182477  .00000094  00000-0  24034-4 0  9990,2 52569  53.2161  47.7992 0001805  68.3288 291.7896 15.08838696 68778,6917.884,95.438,540.998,538.501,0.0
52569.0,STARLINK-3927,PAYLOAD,2023-08-06 19:00:07,15.08821644,0.0001159,53.2163,45.4186,75.8133,284.2988,-0.00026699,-4.532e-05,0.0,0 STARLINK-3927,1 52569U 22051AN  23218.79175215 -.00004532  00000-0 -26699-3 0  9991,2 52569  53.2163  45.4186 0001159  75.8133 284.2988 15.08821644 68857,6917.936,95.439,540.603,539.0,0.0
52569.0,STARLINK-3927,PAYLOAD,2023-08-07 18:50:55,15.0883868,0.0001165,53.2172,40.9584,60.1912,299.9196,0.00091181,0.00014253,0.0,0 STARLINK-3927,1 52569U 22051AN  23219.78536254  .00014253  00000-0  91181-3 0  9992,2 52569  53.2172  40.9584 0001165  60.1912 299.9196 15.08838680 69008,6917.884,95.438,540.555,538.943,0.0
52569.0,STARLINK-3927,PAYLOAD,2023-08-07 22:01:41,15.08850892,0.0001183,53.2172,40.3635,57.1663,302.9442,0.0013174,0.00020747,0.0,0 STARLINK-3927,1 52569U 22051AN  23219.91784176  .00020747  00000-0  13174-2 0  9995,2 52569  53.2172  40.3635 0001183  57.1663 302.9442 15.08850892 69028,6917.847,95.437,540.53,538.894,0.0
52569.0,STARLINK-3927,PAYLOAD,2023-08-08 18:41:41,15.08862765,0.0001212,53.2172,36.4982,55.1903,304.9203,0.00087005,0.00013595,0.0,0 STARLINK-3927,1 52569U 22051AN  23220.77895615  .00013595  00000-0  87005-3 0  9990,2 52569  53.2172  36.4982 0001212  55.1903 304.9203 15.08862765 69150,6917.811,95.436,540.514,538.837,0.0
52569.0,STARLINK-3927,PAYLOAD,2023-08-09 04:14:00,15.08852088,0.0001308,53.2174,34.715,52.161,307.9501,0.00053215,8.194e-05,0.0,0 STARLINK-3927,1 52569U 22051AN  23221.17639034  .00008194  00000-0  53215-3 0  9991,2 52569  53.2174  34.7150 0001308  52.1610 307.9501 15.08852088 69216,6917.843,95.437,540.613,538.804,0.0
52569.0,STARLINK-3927,PAYLOAD,2023-08-10 04:04:46,15.08852678,0.0001108,53.217,30.2531,55.3398,304.7698,0.00017776,2.543e-05,0.0,0 STARLINK-3927,1 52569U 22051AN  23222.16998701  .00002543  00000-0  17776-3 0  9994,2 52569  53.2170  30.2531 0001108  55.3398 304.7698 15.08852678 69365,6917.842,95.437,540.473,538.94,0.0
52569.0,STARLINK-3927,PAYLOAD,2023-08-10 18:23:15,15.08847614,0.0001188,53.216,27.5786,77.4126,282.6999,0.00021155,3.081e-05,0.0,0 STARLINK-3927,1 52569U 22051AN  23222.76614781  .00003081  00000-0  21155-3 0  9997,2 52569  53.2160  27.5786 0001188  77.4126 282.6999 15.08847614 69459,6917.857,95.437,540.544,538.9,0.0
52569.0,STARLINK-3927,PAYLOAD,2023-08-11 18:14:02,15.08847906,0.0001082,53.2178,23.1199,77.5899,282.5215,0.00025856,3.83e-05,0.0,0 STARLINK-3927,1 52569U 22051AN  23223.75974777  .00003830  00000-0  25856-3 0  9995,2 52569  53.2178  23.1199 0001082  77.5899 282.5215 15.08847906 69600,6917.856,95.437,540.47,538.973,0.0
52569.0,STARLINK-3927,PAYLOAD,2023-08-12 10:07:53,15.08841651,0.0001163,53.2167,20.1449,81.3383,278.7741,0.00015568,2.191e-05,0.0,0 STARLINK-3927,1 52569U 22051AN  23224.42215084  .00002191  00000-0  15568-3 0  9997,2 52569  53.2167  20.1449 0001163  81.3383 278.7741 15.08841651 69707,6917.875,95.437,540.545,538.936,0.0
52569.0,STARLINK-3927,PAYLOAD,2023-08-13 09:58:40,15.0883809,0.0001073,53.2159,15.6849,76.5758,283.5354,7.0257e-05,8.3e-06,0.0,0 STARLINK-3927,1 52569U 22051AN  23225.41575204  .00000830  00000-0  70257-4 0  9995,2 52569  53.2159  15.6849 0001073  76.5758 283.5354 15.08838090 69856,6917.886,95.438,540.494,539.009,0.0
52569.0,STARLINK-3927,PAYLOAD,2023-08-14 03:27:56,15.08833096,0.0001092,53.2169,12.4136,82.8483,277.2633,0.00033588,5.061e-05,0.0,0 STARLINK-3927,1 52569U 22051AN  23226.14439816  .00005061  00000-0  33588-3 0  9990,2 52569  53.2169  12.4136 0001092  82.8483 277.2633 15.08833096 69960,6917.901,95.438,540.522,539.011,0.0
52569.0,STARLINK-3927,PAYLOAD,2023-08-14 20:57:09,15.08846421,0.0001167,53.2176,9.1429,79.8053,280.307,0.00011257,1.504e-05,0.0,0 STARLINK-3927,1 52569U 22051AN  23226.87302916  .00001504  00000-0  11257-3 0  9997,2 52569  53.2176   9.1429 0001167  79.8053 280.3070 15.08846421 70078,6917.861,95.437,540.533,538.918,0.0
52569.0,STARLINK-3927,PAYLOAD,2023-08-15 16:01:48,15.088314,0.0001164,53.2187,5.572,91.3557,268.7568,0.00023643,3.476e-05,0.0,0 STARLINK-3927,1 52569U 22051AN  23227.66791784  .00003476  00000-0  23643-3 0  9992,2 52569  53.2187   5.5720 0001164  91.3557 268.7568 15.08831400 70195,6917.907,95.438,540.577,538.966,0.0
52569.0,STARLINK-3927,PAYLOAD,2023-08-15 17:37:10,15.08840252,0.0001184,53.2188,5.2748,88.4825,271.6303,6.9618e-05,8.2e-06,0.0,0 STARLINK-3927,1 52569U 22051AN  23227.73415405  .00000820  00000-0  69618-4 0  9996,2 52569  53.2188   5.2748 0001184  88.4825 271.6303 15.08840252 70207,6917.88,95.438,540.564,538.926,0.0
52569.0,STARLINK-3927,PAYLOAD,2023-08-16 19:03:21,15.08841253,0.0001266,53.2185,0.5171,89.8848,270.229,3.3658e-05,2.48e-06,0.0,0 STARLINK-3927,1 52569U 22051AN  23228.79399478  .00000248  00000-0  33658-4 0  9993,2 52569  53.2185   0.5171 0001266  89.8848 270.2290 15.08841253 70362,6917.877,95.437,540.617,538.866,0.0
52569.0,STARLINK-3927,PAYLOAD,2023-08-18 02:51:03,15.08838831,0.0001388,53.2171,354.5719,81.1368,278.9781,7.0514e-05,8.34e-06,0.0,0 STARLINK-3927,1 52569U 22051AN  23230.11879529  .00000834  00000-0  70514-4 0  9995,2 52569  53.2171 354.5719 0001388  81.1368 278.9781 15.08838831 70564,6917.884,95.438,540.709,538.789,0.0
52569.0,STARLINK-3927,PAYLOAD,2023-08-18 07:37:14,15.08825036,0.0001591,53.2164,353.6779,78.6426,281.4744,-2.2089e-05,-6.39e-06,0.0,0 STARLINK-3927,1 52569U 22051AN  23230.31752817 -.00000639  00000-0 -22089-4 0  9996,2 52569  53.2164 353.6779 0001591  78.6426 281.4744 15.08825036 70598,6917.926,95.439,540.892,538.69,0.0
52569.0,STARLINK-3927,PAYLOAD,2023-08-18 18:44:55,15.08834043,0.0001789,53.2162,351.597,79.6788,280.4406,5.5863e-05,6.01e-06,0.0,0 STARLINK-3927,1 52569U 22051AN  23230.78120366  .00000601  00000-0  55863-4 0  9998,2 52569  53.2162 351.5970 0001789  79.6788 280.4406 15.08834043 70667,6917.899,95.438,541.001,538.526,0.0
52569.0,STARLINK-3927,PAYLOAD,2023-08-19 12:14:09,15.08844716,0.0001021,53.2183,348.3246,98.4026,261.7082,0.00011475,1.539e-05,0.0,0 STARLINK-3927,1 52569U 22051AN  23231.50983347  .00001539  00000-0  11475-3 0  9996,2 52569  53.2183 348.3246 0001021  98.4026 261.7082 15.08844716 70775,6917.866,95.437,540.437,539.025,0.0
52569.0,STARLINK-3927,PAYLOAD,2023-08-19 17:00:18,15.08853777,0.0001175,53.2181,347.4322,115.8129,244.2984,0.00010756,1.425e-05,0.0,0 STARLINK-3927,1 52569U 22051AN  23231.70854710  .00001425  00000-0  10756-3 0  9994,2 52569  53.2181 347.4322 0001175 115.8129 244.2984 15.08853777 70804,6917.838,95.437,540.516,538.89,0.0
52569.0,STARLINK-3927,PAYLOAD,2023-08-20 12:04:57,15.0883319,0.0001241,53.2166,343.8665,94.7965,265.3169,9.0213e-05,1.148e-05,0.0,0 STARLINK-3927,1 52569U 22051AN  23232.50344137  .00001148  00000-0  90213-4 0  9999,2 52569  53.2166 343.8665 0001241  94.7965 265.3169 15.08833190 70923,6917.901,95.438,540.625,538.908,0.0
52569.0,STARLINK-3927,PAYLOAD,2023-08-21 02:23:25,15.08844839,8.93e-05,53.2181,341.1908,86.8455,273.2639,3.5585e-05,2.79e-06,0.0,0 STARLINK-3927,1 52569U 22051AN  23233.09959666  .00000279  00000-0  35585-4 0  9998,2 52569  53.2181 341.1908 0000893  86.8455 273.2639 15.08844839 71012,6917.866,95.437,540.348,539.113,0.0
52569.0,STARLINK-3927,PAYLOAD,2023-08-22 11:46:30,15.08890743,9.46e-05,53.219,334.9492,67.6191,292.4902,-0.00065611,-0.00010729,0.0,0 STARLINK-3927,1 52569U 22051AN  23234.49062634 -.00010729  00000-0 -65611-3 0  9998,2 52569  53.2190 334.9492 0000946  67.6191 292.4902 15.08890743 71227,6917.725,95.434,540.245,538.936,0.0
52569.0,STARLINK-3927,PAYLOAD,2023-08-23 11:37:18,15.08835148,0.0001258,53.2186,330.4886,75.7705,284.3427,3.3786e-05,2.5e-06,0.0,0 STARLINK-3927,1 52569U 22051AN  23235.48424560  .00000250  00000-0  33786-4 0  9993,2 52569  53.2186 330.4886 0001258  75.7705 284.3427 15.08835148 71374,6917.895,95.438,540.63,538.89,0.0
52569.0,STARLINK-3927,PAYLOAD,2023-08-24 11:28:05,15.0883835,0.0001377,53.2194,326.0268,104.3476,255.7669,4.1897e-05,3.79e-06,0.0,0 STARLINK-3927,1 52569U 22051AN  23236.47784361  .00000379  00000-0  41897-4 0  9995,2 52569  53.2194 326.0268 0001377 104.3476 255.7669 15.08838350 71451,6917.885,95.438,540.703,538.798,0.0
52569.0,STARLINK-3927,PAYLOAD,2023-08-25 09:43:29,15.08838057,0.0001299,53.2188,321.8637,97.8216,262.2924,7.9566e-05,9.79e-06,0.0,0 STARLINK-3927,1 52569U 22051AN  23237.40520457  .00000979  00000-0  79566-4 0  9993,2 52569  53.2188 321.8637 0001299  97.8216 262.2924 15.08838057 71662,6917.886,95.438,540.65,538.853,0.0
52569.0,STARLINK-3927,PAYLOAD,2023-08-25 12:54:15,15.08840593,0.0001324,53.2188,321.2689,98.9854,261.1288,9.9237e-05,1.292e-05,0.0,0 STARLINK-3927,1 52569U 22051AN  23237.53768267  .00001292  00000-0  99237-4 0  9996,2 52569  53.2188 321.2689 0001324  98.9854 261.1288 15.08840593 71616,6917.879,95.438,540.66,538.828,0.0
